{
    "links": {
        "self": "http://www.neowsapp.com/rest/v1/neo/3550135?api_key=iIulBulltgU6a56xZRHN4H3l9WmuAYTsLGpBGhQ2"
    },
    "id": "3550135",
    "neo_reference_id": "3550135",
    "name": "(2010 VL)",
    "designation": "2010 VL",
    "nasa_jpl_url": "http://ssd.jpl.nasa.gov/sbdb.cgi?sstr=3550135",
    "absolute_magnitude_h": 25.2,
    "estimated_diameter": {
        "kilometers": {
            "estimated_diameter_min": 0.0242412481,
            "estimated_diameter_max": 0.0542050786
        },
        "meters": {
            "estimated_diameter_min": 24.2412481101,
            "estimated_diameter_max": 54.2050786336
        },
        "miles": {
            "estimated_diameter_min": 0.0150628086,
            "estimated_diameter_max": 0.0336814639
        },
        "feet": {
            "estimated_diameter_min": 79.5316564495,
            "estimated_diameter_max": 177.8381901842
        }
    },
    "is_potentially_hazardous_asteroid": false,
    "close_approach_data": [
        {
            "close_approach_date": "2009-11-14",
            "close_approach_date_full": "2009-Nov-14 01:48",
            "epoch_date_close_approach": 1258163280000,
            "relative_velocity": {
                "kilometers_per_second": "11.2503458275",
                "kilometers_per_hour": "40501.2449788261",
                "miles_per_hour": "25165.8985814267"
            },
            "miss_distance": {
                "astronomical": "0.4051340845",
                "lunar": "157.5971588705",
                "kilometers": "60607196.105600015",
                "miles": "37659565.362769607"
            },
            "orbiting_body": "Earth"
        },
        {
            "close_approach_date": "2010-10-21",
            "close_approach_date_full": "2010-Oct-21 04:15",
            "epoch_date_close_approach": 1287634500000,
            "relative_velocity": {
                "kilometers_per_second": "14.208721703",
                "kilometers_per_hour": "51151.3981306798",
                "miles_per_hour": "31783.489577366"
            },
            "miss_distance": {
                "astronomical": "0.0621100403",
                "lunar": "24.1608056767",
                "kilometers": "9291529.734494161",
                "miles": "5773488.8567789818"
            },
            "orbiting_body": "Earth"
        },
        {
            "close_approach_date": "2011-11-05",
            "close_approach_date_full": "2011-Nov-05 00:54",
            "epoch_date_close_approach": 1320454440000,
            "relative_velocity": {
                "kilometers_per_second": "26.0931763696",
                "kilometers_per_hour": "93935.434930637",
                "miles_per_hour": "58367.8262212061"
            },
            "miss_distance": {
                "astronomical": "0.3810303626",
                "lunar": "148.2208110514",
                "kilometers": "57001330.650287662",
                "miles": "35418984.4659552556"
            },
            "orbiting_body": "Earth"
        }
    ],
    "orbital_data": {
        "orbit_id": "6",
        "orbit_determination_date": "2017-04-06 08:56:00",
        "first_observation_date": "2010-11-01",
        "last_observation_date": "2010-11-02",
        "data_arc_in_days": 1,
        "observations_used": 19,
        "orbit_uncertainty": "9",
        "minimum_orbit_intersection": ".0455289",
        "jupiter_tisserand_invariant": "5.760",
        "epoch_osculation": "2455502.5",
        "eccentricity": ".4162524246028455",
        "semi_major_axis": "1.045880862540526",
        "inclination": "15.63674985798551",
        "ascending_node_longitude": "36.65858687027565",
        "orbital_period": "390.6805149079451",
        "perihelion_distance": ".610530417662317",
        "perihelion_argument": "240.4241401925552",
        "aphelion_distance": "1.481231307418736",
        "perihelion_time": "2455421.382513900699",
        "mean_anomaly": "74.74725224683706",
        "mean_motion": ".9214690425111827",
        "equinox": "J2000",
        "orbit_class": {
            "orbit_class_type": "APO",
            "orbit_class_description": "Near-Earth asteroid orbits which cross the Earth’s orbit similar to that of 1862 Apollo",
            "orbit_class_range": "a (semi-major axis) > 1.0 AU; q (perihelion) < 1.017 AU"
        }
    },
    "is_sentry_object": false
}